STARLINK-2022           
1 47643U 21012Z   23258.05557859  .00020602  00000+0  13995-2 0  9992
2 47643  53.0527 161.6602 0001243  96.2462 263.8669 15.06358863143091
